[{"OBJECT_NAME":"ONEWEB-0606","OBJECT_ID":"2022-166AE","EPOCH":"2026-03-09T22:06:33.992928","MEAN_MOTION":13.21826116,"ECCENTRICITY":0.00017917,"INCLINATION":87.9162,"RA_OF_ASC_NODE":263.7944,"ARG_OF_PERICENTER":92.398,"MEAN_ANOMALY":267.7359,"EPHEMERIS_TYPE":0,"CLASSIFICATION_TYPE":"U","NORAD_CAT_ID":54670,"ELEMENT_SET_NO":999,"REV_AT_EPOCH":15845,"BSTAR":-0.00028056398,"MEAN_MOTION_DOT":-1.03e-6,"MEAN_MOTION_DDOT":0},{"OBJECT_NAME":"NOAA 17 DEB","OBJECT_ID":"2002-032BC","EPOCH":"2026-03-09T17:05:34.355616","MEAN_MOTION":13.65175691,"ECCENTRICITY":0.03220336,"INCLINATION":98.405,"RA_OF_ASC_NODE":154.3151,"ARG_OF_PERICENTER":44.7429,"MEAN_ANOMALY":317.9217,"EPHEMERIS_TYPE":0,"CLASSIFICATION_TYPE":"U","NORAD_CAT_ID":48719,"ELEMENT_SET_NO":999,"REV_AT_EPOCH":24780,"BSTAR":0.00048296146,"MEAN_MOTION_DOT":5.24e-6,"MEAN_MOTION_DDOT":0}]
